full_name,a,e,i,om,w,q,ad,per_y,data_arc,condition_code,n_obs_used,n_del_obs_used,n_dop_obs_used,H
"       (2006 VD173)",2.403642271437154,.2091679429869925,1.300436776397815,167.3184077001859,227.764620072441,1.900877361844062,2.906407181030246,3.72660147819804,14,8,9,,,19.277
"       (2018 CT13)",2.403649888318557,.379204930933672,8.0220419725976,297.6870749675309,264.3080782962627,1.49217399842999,3.315125778207123,3.72661919200533,3,9,17,,,19.378
"       (2016 UJ112)",2.403655528781281,.1769531150172576,1.704959185478851,201.0155435953124,238.8233543904466,1.97832119553498,2.828989862027582,3.72663230947456,29,6,57,,,19.204
"       (2013 TY147)",2.4037107,0.2143713,1.64716,150.26835,256.33301,1.8884241,2.9189973,3.72676057850787,2,,4,,,20.0
"       (2015 PH110)",2.403726101992492,.2172804979671197,2.117147940127894,331.6416327792481,50.31364271457431,1.881443297575,2.926008906409984,3.72679643594968,2,9,14,,,19.35
"       (2008 AT32)",2.403772876207259,.2969334106668754,9.818640938762087,321.7414773583453,118.222478542076,1.690012397606513,3.117533354808005,3.72690521632908,3,9,9,,,19.616
"       (2008 EZ162)",2.403785261298967,.2976499383638169,.9034515713552468,29.71368345499919,104.274423767193,1.688298726433478,3.119271796164456,3.72693401987545,19,9,12,,,19.333
"       (2013 RP51)",2.403785845457576,.1938062295590818,4.226165289273855,12.25643406597605,322.783926016008,1.937917174081954,2.869654516833199,3.7269353784332,29,7,20,,,19.078
"       (2013 HK34)",2.40385757012268,.1512561161687907,4.224474981957894,282.8150304181073,285.0931664452922,2.040259410242977,2.767455730002383,3.72710218729415,3,9,13,,,19.792
"       (2014 OK327)",2.403863283692447,.1833006383088963,1.49365156638926,313.5022922713749,356.1584656528444,1.963233609384302,2.844492958000592,3.72711547535537,5,9,14,,,19.7
"       (2012 SG48)",2.403896352501967,.2559654483702116,5.713673680714712,11.07507113270956,304.5248551115673,1.788581944798285,3.01921076020565,3.72719238386537,11,9,11,,,19.168
"       (2016 UN125)",2.403910866779498,.2101250454857446,4.886280503575074,228.7422062511858,197.287682050965,1.89878898655378,2.909032747005215,3.72722614005432,3,8,26,,,19.981
"       (2011 SF150)",2.403913739438324,.2441931820679645,4.852948992979989,181.0836201575669,206.0104186016657,1.81689439398798,2.990933084888668,3.72723282107507,3,9,9,,,19.534
"       (2015 BT178)",2.403978429596586,.1811375539849335,5.576072223070019,79.80367453416018,321.0967612528216,1.968527657026919,2.839429202166254,3.7273832737926,5,8,13,,,19.099
"       (2015 PG40)",2.403988008604506,.2038293238106689,3.163059162079362,71.44825731662606,264.5260149988451,1.913984758361692,2.893991258847318,3.72740555228043,76,5,22,,,19.2
"       (2015 HL76)",2.404014393070013,.1261471760755453,2.529985732364935,50.97990160556422,173.9106596145934,2.100754766139265,2.707274020000761,3.72746691648403,25,6,19,,,19.091
"       (2009 JH18)",2.404024081746302,.2029520836496351,5.457702867261186,183.8081694645156,43.15961153532704,1.916122385211989,2.891925778280614,3.72748945020314,15,7,15,,,19.189
"       (2014 EK169)",2.404046067917333,.1325827813001454,5.318928293175201,295.1808374766017,275.2327530942158,2.085310953859175,2.722781181975491,3.72754058534478,3,8,12,,,19.32
"       (2011 CG93)",2.404078755765269,.1984640537153455,4.723916966385465,191.9435508894603,260.7415116688584,1.92695554044515,2.881201971085388,3.72761661073525,6,8,10,,,19.605
"       (2016 CW137)",2.404118436208969,.6545796106598816,37.68682817305574,133.038702420785,316.3205030839369,.8304315262550587,3.977805346162879,3.72770890019813,67,5,40,,,19.3
"       (2014 GK26)",2.404126450091356,.2671782244688621,2.187579523329809,238.1639885212332,293.8703125044763,1.761796213757319,3.046456686425393,3.72772753911696,19,9,12,,,19.713
"       (2012 TK51)",2.404134194808337,.1897020755905321,3.989045032854353,9.961922253098862,341.8941872757825,1.948064948055023,2.860203441561651,3.72774555203265,27,6,18,,,19.101
"       (2002 QN128)",2.404162837318438,.3123320910059871,16.13744993832519,149.2003367032447,130.2967050458057,1.653265631219884,3.155060043416993,3.72781216997012,39,6,11,,,19.27
"       (2009 KN33)",2.404211619682568,.2038172092080106,4.111422538449859,46.20726925705814,303.0338592476971,1.914191917013396,2.89423132235174,3.72792563092854,2,9,21,,,19.845
"       (2015 BL328)",2.40422190539385,.1428148522391132,5.196012180918566,125.5336163408097,14.70154860262141,2.060863309224988,2.747580501562712,3.72794955420182,1566,2,27,,,19.1
"       (2015 DQ4)",2.404306995546574,.2226955594702164,10.29890291374273,324.3333197763394,146.4438571471356,1.868878504035175,2.939735487057973,3.72814746517847,24,6,14,,,19.491
"       (2014 NL31)",2.40436582641565,.1710857143170739,1.978260019362161,216.4736337561527,80.0055466260261,1.993013181523767,2.815718471307533,3.7282843017997,50,5,22,,,19.158
"       (2012 UD43)",2.404380589230866,.1839774128134612,2.441949357130235,76.43098521488449,298.5183216530909,1.962028869005266,2.846732309456466,3.72831863937186,20,7,10,,,19.292
"       (2005 UX165)",2.404389741045815,.1669701783501205,.5493265701618202,250.9391706094461,167.5882064696945,2.002928357160195,2.805851124931434,3.72833992609008,11,8,16,,,19.331
"       (2017 XE15)",2.404544002196586,.2272486604436096,1.595121698383211,24.76700995981833,340.2744283160641,1.858114598719696,2.950973405673477,3.72869873682435,43,6,23,,,19.145
"       (2011 BY156)",2.404551846861753,.2179672476907605,4.765092253976094,170.9661566256917,244.0212124785863,1.880438298871562,2.928665394851945,3.72871698378735,11,8,11,,,19.477
"       (2014 QX303)",2.404631713181338,.2093229582581257,1.854897981640997,90.79874404678904,276.2729639349881,1.901287089456916,2.907976336905761,3.72890275730818,11,7,10,,,19.588
"       (2015 RG73)",2.404690465094649,.1149929656705711,7.071414694192407,12.54025638378927,319.376430113713,2.12816797699367,2.681212953195627,3.72903941951004,53,5,40,,,19.069
"       (2014 KJ39)",2.4047864285339,.3741770376054416,5.199262491120332,123.929624028532,145.175049138741,1.504970566631316,3.304602290436486,3.7292626426378,62,5,37,,,19.8
"       (2004 RQ240)",2.404798104371531,.2084197993441852,2.499620491695163,342.0982887512317,322.657681268564,1.903590565995139,2.906005642747922,3.72928980242054,6,9,9,,,19.082
"       (2008 SZ25)",2.404866097865818,.2569511609917194,.5598059437333258,105.35159700,285.4798929658697,1.78693296198957,3.022799233742066,3.72944796698959,1541,4,19,,,19.2
"       (2014 EB81)",2.404877333890702,.1692929670742577,4.71030137133932,202.344656068247,331.1401034497129,1.997748514586715,2.81200615319469,3.72947410413241,3,9,11,,,19.915
"       (2016 EO216)",2.404878315047315,.1301547400182211,2.428692725510908,232.8766770464486,307.6442412623627,2.091872003176874,2.717884626917756,3.72947638649323,3993,2,33,,,19.0
"       (2005 EQ70)",2.404897165211569,.4718059492295712,6.248318462825599,69.68042272182713,104.2819170581774,1.27025237537942,3.539541955043718,3.72952023572655,88,5,74,,,19.9
"       (2006 BE209)",2.404904236908623,.09500272855975687,1.234158095373058,159.4641650176449,338.5456766229831,2.176431772477384,2.633376701339862,3.72953668594553,2,9,11,,,19.275
"       (2001 FK225)",2.404975160191053,.1720149980063669,.6656359740510982,206.5778431018099,64.26021867139694,1.991283362805427,2.818666957576679,3.72970166939673,8,9,10,,,19.6
"       (2016 UO124)",2.40502369227197,.2388277285666491,1.817349436866562,28.88313553810488,336.0094302341546,1.83063734669768,2.979410037846261,3.72981456729651,3,9,17,,,19.849
"       (2014 WJ72)",2.405100704923171,.1987541522893664,2.480001259408684,162.2985239257602,204.0471618451693,1.927076953145609,2.883124456700733,3.72999372054689,39,5,18,,,19.061
"       (2006 OD34)",2.405215979900348,.244416038650597,1.592421096926504,292.9679496554048,64.55758861579339,1.817342617993991,2.993089341806705,3.73026188817009,2,9,7,,,19.113
"       (2005 YF137)",2.405295447039491,.151599845837931,2.400901884632175,67.78791620143542,20.90263229603898,2.040653028073627,2.769937866005356,3.73044675869199,2506,4,27,,,19.1
"       (2013 AM143)",2.405297727304906,.2318440080302032,10.66181418930303,187.7181736536612,238.1842466926259,1.847643861700598,2.962951592909214,3.730452063494,4549,4,24,,,19.1
"       (2009 HO5)",2.405321285635591,.1276483304586911,2.022363591028137,137.6431431130075,17.42474297108665,2.098286039307455,2.712356531963726,3.73050686966467,17,8,10,,,19.184
"       (2000 BK20)",2.405331914907464,.175071193998608,1.706000974469939,133.1241265727174,319.30235248,1.984227584601656,2.826436245213272,3.73053159772228,15,8,11,,,19.066
"       (2013 AO79)",2.405384882987231,.1354809865655215,.4971460497652875,263.4229974825964,230.3646621186898,2.079500965970329,2.731268800004132,3.7306548240732,31,6,16,,,19.462
"       (2011 RN17)",2.405427668254493,.2071250423951601,1.912830033673102,205.0772851842844,175.3915642477713,1.90720336048879,2.903651976020195,3.7307543618486,1558,3,50,,,19.4
"       (1998 SM40)",2.405459864951439,.2103599122954735,1.388290409633384,1.501298877732544,337.5683979880588,1.899447538729973,2.911472191172905,3.73082926643071,9,9,8,,,19.199
"       (2007 VX41)",2.405511134838994,.2169141896901984,3.999225607848646,72.86919635527455,30.78139178567031,1.883721636234644,2.927300633443344,3.73094854521331,2,9,12,,,19.2
"       (2005 TK113)",2.405543996321093,.207216138863895,1.3854187507701,279.2755781305548,137.4344328964438,1.907076457536213,2.904011535105974,3.7310249977284,14,8,9,,,19.088
"       (2009 UU45)",2.40558091919747,.1878905413462753,1.889004221273815,36.48747406263236,356.850209981762,1.953595018037186,2.857566820357753,3.73111089973451,21,7,13,,,19.425
"       (2016 PT39)",2.405595621700184,.3364203988247619,6.476296202972685,59.39924821749472,300.748222070172,1.596304183236707,3.21488706016366,3.73114510566259,2,9,12,,,19.451
